OBJECT_NAME,OBJECT_ID,EPOCH,MEAN_MOTION,ECCENTRICITY,INCLINATION,RA_OF_ASC_NODE,ARG_OF_PERICENTER,MEAN_ANOMALY,EPHEMERIS_TYPE,CLASSIFICATION_TYPE,NORAD_CAT_ID,ELEMENT_SET_NO,REV_AT_EPOCH,BSTAR,MEAN_MOTION_DOT,MEAN_MOTION_DDOT
STARLINK-3615,2022-017L,2026-03-20T20:39:07.072992,15.08826931,.00014744,53.2175,278.8492,93.6339,266.4822,0,U,51778,999,22424,-.29661651E-4,-.76E-5,0
STARLINK-3611,2022-017M,2026-03-20T07:45:29.386656,15.08846322,.00014969,53.2173,291.4332,126.8179,233.2951,0,U,51779,999,22417,-.22074693E-3,-.38E-4,0
STARLINK-3617,2022-017N,2026-03-19T23:25:59.495520,15.08834139,.00014678,53.2177,292.9341,85.8352,274.2808,0,U,51780,999,22397,-.3012837E-5,-.336E-5,0
STARLINK-3580,2022-017P,2026-03-20T07:28:12.926208,15.08830718,.00015249,53.2182,291.4020,82.8685,277.2480,0,U,51781,999,22402,-.21411469E-3,-.3693E-4,0
STARLINK-3616,2022-017Q,2026-03-20T21:03:00.103392,15.08831609,.00012775,53.2174,299.0538,85.0241,275.0897,0,U,51782,999,22387,.6487641E-4,.745E-5,0
STARLINK-3628,2022-017R,2026-03-20T07:34:53.175072,15.08867001,.00010531,53.2172,291.4687,96.1889,263.9223,0,U,51783,999,22402,.28620816E-3,.4273E-4,0
STARLINK-3632,2022-017S,2026-03-20T22:11:51.591552,15.08856665,.00015339,53.2176,298.6851,80.9447,279.1719,0,U,51784,999,22397,-.34518188E-3,-.578E-4,0
STARLINK-3646,2022-017T,2026-03-20T13:40:32.260512,15.08838201,.00015171,53.2183,290.2515,90.6978,269.4188,0,U,51785,999,22406,.24462085E-4,.101E-5,0
STARLINK-3638,2022-017U,2026-03-20T22:01:15.279744,15.08832743,.00014619,53.2170,298.7179,77.9050,282.2106,0,U,51786,999,22397,-.13522885E-3,-.2439E-4,0
STARLINK-3619,2022-017V,2026-03-20T20:47:01.618944,15.08863157,.00008544,53.2189,298.9497,99.2973,260.8116,0,U,51787,999,22396,.15320764E-3,.2153E-4,0
STARLINK-3641,2022-017W,2026-03-21T02:31:31.455552,15.08833065,.00018104,53.2178,297.8765,95.2458,264.8741,0,U,51788,999,22564,-.53506631E-4,-.1139E-4,0
STARLINK-3639,2022-017X,2026-03-20T22:06:35.085024,15.08825345,.00013702,53.2177,298.7010,79.3643,280.7504,0,U,51789,999,22397,.21472352E-3,.313E-4,0
STARLINK-3631,2022-017Y,2026-03-20T23:15:26.069472,15.08842697,.00013711,53.2174,298.4855,83.9213,276.1936,0,U,51790,999,22567,.70285017E-4,.831E-5,0
STARLINK-3602,2022-017Z,2026-03-19T23:40:33.910176,15.08851842,.00012964,53.2178,302.8984,100.9163,259.1975,0,U,51791,999,22547,.15365195E-3,.2159E-4,0
STARLINK-3626,2022-017AA,2026-03-20T21:29:27.695616,15.08840159,.00012049,53.2170,298.8161,87.4757,272.6373,0,U,51792,999,22566,.21208393E-4,.5E-6,0
STARLINK-3633,2022-017AB,2026-03-20T20:44:15.649728,15.44651640,.00014383,53.2178,290.7856,43.1292,316.9829,0,U,51793,999,22577,.39242701E-3,.18194E-3,0
STARLINK-3573,2022-017AC,2026-03-20T21:18:51.891840,15.08839029,.00014268,53.2168,298.8484,91.1208,268.9947,0,U,51794,999,22561,.21404701E-4,.53E-6,0
STARLINK-3586,2022-017AD,2026-03-20T21:50:41.604864,15.08846247,.00011838,53.2178,298.9487,92.1059,268.0069,0,U,51795,999,22561,-.20617267E-3,-.3568E-4,0
STARLINK-3634,2022-017AG,2026-03-20T20:57:40.650624,15.08852495,.0001655,53.2173,298.9165,76.5270,283.5907,0,U,51798,999,22565,.8296113E-4,.1033E-4,0
STARLINK-3637,2022-017AH,2026-03-20T21:13:33.725568,15.08842443,.0001406,53.2177,298.8647,91.3278,268.7875,0,U,51799,999,22561,.2424768E-5,-.249E-5,0
STARLINK-3592,2022-017AK,2026-03-20T21:08:16.152000,15.08842851,.00014872,53.2171,298.8827,91.7288,268.3875,0,U,51801,999,22561,-.16093975E-4,-.544E-5,0
STARLINK-3544,2022-017AM,2026-03-20T20:52:22.053216,15.08843964,.00015241,53.2180,298.9346,91.9796,268.1371,0,U,51803,999,22560,.8041416E-5,-.16E-5,0
STARLINK-3601,2022-017AN,2026-03-21T06:43:13.646784,15.08843381,.0001468,53.2176,277.0931,86.2369,273.8791,0,U,51804,999,22590,.91896668E-4,.1175E-4,0
STARLINK-3605,2022-017AP,2026-03-20T22:51:37.524096,15.08830022,.00015892,53.2168,278.6388,87.5196,272.5978,0,U,51805,999,22594,.10242305E-3,.1342E-4,0
STARLINK-3606,2022-017AR,2026-03-20T21:36:05.231520,15.08839099,.00014062,53.2168,288.7962,88.5142,271.6012,0,U,51807,999,22580,.16840128E-4,-.2E-6,0
STARLINK-3609,2022-017AS,2026-03-20T21:14:53.701728,15.08834817,.00014491,53.2170,288.8622,90.3887,269.7271,0,U,51808,999,22565,.43980322E-4,.412E-5,0
STARLINK-3607,2022-017AT,2026-03-20T21:25:29.029440,15.08827627,.00015438,53.2178,288.7919,80.1205,279.9962,0,U,51809,999,22575,.10695756E-3,.1414E-4,0
STARLINK-3613,2022-017AU,2026-03-20T20:44:27.680928,15.08836509,.00013529,53.2175,279.1784,92.2200,267.8947,0,U,51810,999,22576,.36606562E-4,.295E-5,0
STARLINK-3569,2022-017AV,2026-03-20T21:20:11.537952,15.08836769,.0001537,53.2177,288.8459,89.9148,270.2020,0,U,51811,999,22565,.45906171E-4,.443E-5,0
STARLINK-3610,2022-017AW,2026-03-20T13:35:11.009760,15.08839407,.00015699,53.2164,280.2957,97.0507,263.0664,0,U,51812,999,22572,.2003243E-5,-.256E-5,0
