STARLINK-3615           
1 51778U 22017L   26079.86049853 -.00000760  00000+0 -29662-4 0  9990
2 51778  53.2175 278.8492 0001474  93.6339 266.4822 15.08826931224249
STARLINK-3611           
1 51779U 22017M   26079.32325679 -.00003800  00000+0 -22075-3 0  9993
2 51779  53.2173 291.4332 0001496 126.8179 233.2951 15.08846322224170
STARLINK-3617           
1 51780U 22017N   26078.97638305 -.00000336  00000+0 -30128-5 0  9999
2 51780  53.2177 292.9341 0001467  85.8352 274.2808 15.08834139223973
STARLINK-3580           
1 51781U 22017P   26079.31126072 -.00003693  00000+0 -21411-3 0  9994
2 51781  53.2182 291.4020 0001524  82.8685 277.2480 15.08830718224023
STARLINK-3616           
1 51782U 22017Q   26079.87708453  .00000745  00000+0  64876-4 0  9991
2 51782  53.2174 299.0538 0001277  85.0241 275.0897 15.08831609223871
STARLINK-3628           
1 51783U 22017R   26079.31589323  .00004273  00000+0  28621-3 0  9991
2 51783  53.2172 291.4687 0001053  96.1889 263.9223 15.08867001224026
STARLINK-3632           
1 51784U 22017S   26079.92490268 -.00005780  00000+0 -34518-3 0  9996
2 51784  53.2176 298.6851 0001533  80.9447 279.1719 15.08856665223973
STARLINK-3646           
1 51785U 22017T   26079.56981783  .00000101  00000+0  24462-4 0  9992
2 51785  53.2183 290.2515 0001517  90.6978 269.4188 15.08838201224065
STARLINK-3638           
1 51786U 22017U   26079.91753796 -.00002439  00000+0 -13523-3 0  9996
2 51786  53.2170 298.7179 0001461  77.9050 282.2106 15.08832743223975
STARLINK-3619           
1 51787U 22017V   26079.86599096  .00002153  00000+0  15321-3 0  9991
2 51787  53.2189 298.9497 0000854  99.2973 260.8116 15.08863157223962
STARLINK-3641           
1 51788U 22017W   26080.10522518 -.00001139  00000+0 -53507-4 0  9990
2 51788  53.2178 297.8765 0001810  95.2458 264.8741 15.08833065225644
STARLINK-3639           
1 51789U 22017X   26079.92123941  .00003130  00000+0  21472-3 0  9992
2 51789  53.2177 298.7010 0001370  79.3643 280.7504 15.08825345223977
STARLINK-3631           
1 51790U 22017Y   26079.96905173  .00000831  00000+0  70285-4 0  9995
2 51790  53.2174 298.4855 0001371  83.9213 276.1936 15.08842697225671
STARLINK-3602           
1 51791U 22017Z   26078.98650359  .00002159  00000+0  15365-3 0  9992
2 51791  53.2178 302.8984 0001296 100.9163 259.1975 15.08851842225473
STARLINK-3626           
1 51792U 22017AA  26079.89545944  .00000050  00000+0  21208-4 0  9999
2 51792  53.2170 298.8161 0001204  87.4757 272.6373 15.08840159225666
STARLINK-3633           
1 51793U 22017AB  26079.86407002  .00018194  00000+0  39243-3 0  9994
2 51793  53.2178 290.7856 0001438  43.1292 316.9829 15.44651640225774
STARLINK-3573           
1 51794U 22017AC  26079.88810060  .00000053  00000+0  21405-4 0  9996
2 51794  53.2168 298.8484 0001426  91.1208 268.9947 15.08839029225616
STARLINK-3586           
1 51795U 22017AD  26079.91020376 -.00003568  00000+0 -20617-3 0  9993
2 51795  53.2178 298.9487 0001183  92.1059 268.0069 15.08846247225613
STARLINK-3634           
1 51798U 22017AG  26079.87338716  .00001033  00000+0  82961-4 0  9995
2 51798  53.2173 298.9165 0001655  76.5270 283.5907 15.08852495225658
STARLINK-3637           
1 51799U 22017AH  26079.88441812 -.00000249  00000+0  24248-5 0  9993
2 51799  53.2177 298.8647 0001406  91.3278 268.7875 15.08842443225611
STARLINK-3592           
1 51801U 22017AK  26079.88074250 -.00000544  00000+0 -16094-4 0  9993
2 51801  53.2171 298.8827 0001487  91.7288 268.3875 15.08842851225612
STARLINK-3544           
1 51803U 22017AM  26079.86969969 -.00000160  00000+0  80414-5 0  9994
2 51803  53.2180 298.9346 0001524  91.9796 268.1371 15.08843964225603
STARLINK-3601           
1 51804U 22017AN  26080.28001906  .00001175  00000+0  91897-4 0  9993
2 51804  53.2176 277.0931 0001468  86.2369 273.8791 15.08843381225902
STARLINK-3605           
1 51805U 22017AP  26079.95251764  .00001342  00000+0  10242-3 0  9995
2 51805  53.2168 278.6388 0001589  87.5196 272.5978 15.08830022225948
STARLINK-3606           
1 51807U 22017AR  26079.90006055 -.00000020  00000+0  16840-4 0  9997
2 51807  53.2168 288.7962 0001406  88.5142 271.6012 15.08839099225807
STARLINK-3609           
1 51808U 22017AS  26079.88534377  .00000412  00000+0  43980-4 0  9997
2 51808  53.2170 288.8622 0001449  90.3887 269.7271 15.08834817225650
STARLINK-3607           
1 51809U 22017AT  26079.89269710  .00001414  00000+0  10696-3 0  9995
2 51809  53.2178 288.7919 0001543  80.1205 279.9962 15.08827627225755
STARLINK-3613           
1 51810U 22017AU  26079.86420927  .00000295  00000+0  36607-4 0  9990
2 51810  53.2175 279.1784 0001352  92.2200 267.8947 15.08836509225764
STARLINK-3569           
1 51811U 22017AV  26079.88902243  .00000443  00000+0  45906-4 0  9996
2 51811  53.2177 288.8459 0001537  89.9148 270.2020 15.08836769225658
STARLINK-3610           
1 51812U 22017AW  26079.56609965 -.00000256  00000+0  20032-5 0  9994
2 51812  53.2164 280.2957 0001569  97.0507 263.0664 15.08839407225722
